LYNK TOWER 4            
1 55034U 23001AB  26068.67743801  .00009160  00000+0  30014-3 0  9997
2 55034  97.3324 128.5940 0010321 112.3386 247.8950 15.31819885176588
STARLINK-32879          
1 62957U 25029K   26068.68231314  .00011957  00000+0  41526-3 0  9990
2 62957  53.1572 232.6916 0001034  93.9856 266.1263 15.30193249 61315
